{"fetched_at":"2026-05-03T06:27:58Z","count":17151,"tles":[{"name":"KUIPER-00357","line1":"1 68866U 26095C   26122.41670139  .00069740  00000+0  18398-2 0  9996","line2":"2 68866  51.8812 103.6791 0003809 101.2613  55.2219 15.37832672  1629","category":"Other"}]}