{
  "norad_id": 68866,
  "name": "KUIPER-00357",
  "history": [
    {
      "epoch": "2026-05-02T10:00:03.000096Z",
      "apogee_km": 455.1213955794756,
      "perigee_km": 449.91780138275317,
      "latitude_deg": 18.30367844028067,
      "longitude_deg": -101.6262400690076,
      "height_km": 451.2450705306958,
      "semi_major_axis_km": 6830.656598481114,
      "eccentricity": 0.0003809,
      "inclination_deg": 51.8812,
      "raan_deg": 103.6791,
      "arg_perigee_deg": 101.2613,
      "mean_anomaly_deg": 55.2219,
      "mean_motion_rev_day": 15.37832672
    }
  ]
}